SMOS                    
1 36036U 09059A   26196.75238376  .00000125  00000+0  53837-4 0  9993
2 36036  98.4429  23.6687 0001162  97.3009 262.8311 14.39736269877562
SRMSAT                  
1 37841U 11058D   26196.43842265  .00000333  00000+0  37014-4 0  9993
2 37841  19.9710 248.4743 0011765 153.8769 331.6515 14.11581130761815
SPOT 6                  
1 38755U 12047A   26196.94219008 -.00000177  00000+0 -28318-4 0  9991
2 38755  98.2112 263.9123 0001116  85.8920 274.2407 14.58537959737245
SPOT 7                  
1 40053U 14034A   26196.94673106  .00000051  00000+0  19667-4 0  9992
2 40053  98.0619 258.6952 0001603  94.1131 266.0253 14.60980682641338
STRIX-1                 
1 53815U 22113A   26196.96115876  .00013795  00000+0  33604-3 0  9991
2 53815  97.4477 259.5210 0005530 130.0510 230.1222 15.41023687211877
STRIX-3                 
1 59224U 24047A   26196.95402660  .00004753  00000+0  22482-3 0  9994
2 59224  97.6636 173.0650 0011902 332.1460  27.9136 15.19817344129110
STRIX-4                 
1 60352U 24137A   26196.95343153  .00009452  00000+0  29447-3 0  9998
2 60352  43.0152 121.2455 0016201 137.0364 223.1758 15.33327789108439
STRIX-2                 
1 62406U 24248A   26196.98348028  .00002312  00000+0  14927-3 0  9997
2 62406  97.6299 152.4641 0013733 232.6322 127.3656 15.09194848 85936
STRIX-5                 
1 65971U 25229A   26196.25032383  .00001775  00000+0  13607-3 0  9997
2 65971  41.9273 131.7609 0037870 237.8606 121.8542 15.04589068 41206
STRIX-6                 
1 68291U 26056A   26196.76876792  .00001002  00000+0  99926-4 0  9992
2 68291  50.2827 214.6701 0016625 353.2933   6.7792 15.00329312 17567
